{"type": "FeatureCollection", "features": [ {"type": "Feature", "properties": {"norad_id": 30613, "name": "FENGYUN 1C DEB", "group": "fengyun-1c-debris", "lat": 1.4388067057122291, "lon": -59.52194912223239, "alt_km": 484.9585742904792, "timestamp": "2025-12-25T07:00:34.324319+00:00", "meta": {"OBJECT_NAME": "FENGYUN 1C DEB", "OBJECT_ID": "1999-025AMU", "EPOCH": "2025-12-24T14:25:44.057568", "MEAN_MOTION": 15.19583462, "ECCENTRICITY": 0.00607429, "INCLINATION": 98.3061, "RA_OF_ASC_NODE": 119.5081, "ARG_OF_PERICENTER": 126.5168, "MEAN_ANOMALY": 234.168, "EPHEMERIS_TYPE": 0, "CLASSIFICATION_TYPE": "U", "NORAD_CAT_ID": 30613, "ELEMENT_SET_NO": 999, "REV_AT_EPOCH": 99576, "BSTAR": 0.0048480098, "MEAN_MOTION_DOT": 0.00109724, "MEAN_MOTION_DDOT": 0}, "tle": {"line1": "1 30613U 99025AMU 25358.60120437  .00109724  00000+0  48480-2 0  9992", "line2": "2 30613  98.3061 119.5081 0060742 126.5168 234.1680 15.19583462995769"}}, "geometry": {"type": "Point", "coordinates": [-59.52194912223239, 1.4388067057122291]}}, {"type": "Feature", "properties": {"norad_id": 30616, "name": "FENGYUN 1C DEB", "group": "fengyun-1c-debris", "lat": -39.790111844162176, "lon": 62.881292943554065, "alt_km": 1145.6342231780081, "timestamp": "2025-12-25T07:00:34.324330+00:00", "meta": {"OBJECT_NAME": "FENGYUN 1C DEB", "OBJECT_ID": "1999-025AMX", "EPOCH": "2025-12-24T02:27:35.770176", "MEAN_MOTION": 13.36045986, "ECCENTRICITY": 0.03815408, "INCLINATION": 98.6403, "RA_OF_ASC_NODE": 54.5957, "ARG_OF_PERICENTER": 227.5097, "MEAN_ANOMALY": 129.3206, "EPHEMERIS_TYPE": 0, "CLASSIFICATION_TYPE": "U", "NORAD_CAT_ID": 30616, "ELEMENT_SET_NO": 999, "REV_AT_EPOCH": 91852, "BSTAR": 0.0017156792, "MEAN_MOTION_DOT": 1.296e-05, "MEAN_MOTION_DDOT": 0}, "tle": {"line1": "1 30616U 99025AMX 25358.10249734  .00001296  00000+0  17157-2 0  9994", "line2": "2 30616  98.6403  54.5957 0381540 227.5097 129.3206 13.36045986918529"}}, "geometry": {"type": "Point", "coordinates": [62.881292943554065, -39.790111844162176]}}, {"type": "Feature", "properties": {"norad_id": 30619, "name": "FENGYUN 1C DEB", "group": "fengyun-1c-debris", "lat": -30.07796227297769, "lon": 26.707908784281095, "alt_km": 662.0777660474596, "timestamp": "2025-12-25T07:00:34.324370+00:00", "meta": {"OBJECT_NAME": "FENGYUN 1C DEB", "OBJECT_ID": "1999-025ANA", "EPOCH": "2025-12-24T01:09:08.000928", "MEAN_MOTION": 14.41122225, "ECCENTRICITY": 0.02153306, "INCLINATION": 98.2947, "RA_OF_ASC_NODE": 20.6529, "ARG_OF_PERICENTER": 24.4379, "MEAN_ANOMALY": 336.6838, "EPHEMERIS_TYPE": 0, "CLASSIFICATION_TYPE": "U", "NORAD_CAT_ID": 30619, "ELEMENT_SET_NO": 999, "REV_AT_EPOCH": 99112, "BSTAR": 0.00029303939, "MEAN_MOTION_DOT": 1.193e-05, "MEAN_MOTION_DDOT": 0}, "tle": {"line1": "1 30619U 99025ANA 25358.04800927  .00001193  00000+0  29304-3 0  9991", "line2": "2 30619  98.2947  20.6529 0215330  24.4379 336.6838 14.41122225991120"}}, "geometry": {"type": "Point", "coordinates": [26.707908784281095, -30.07796227297769]}}, {"type": "Feature", "properties": {"norad_id": 30621, "name": "FENGYUN 1C DEB", "group": "fengyun-1c-debris", "lat": 72.60680628664139, "lon": -87.07266754011165, "alt_km": 968.0395482180165, "timestamp": "2025-12-25T07:00:34.324396+00:00", "meta": {"OBJECT_NAME": "FENGYUN 1C DEB", "OBJECT_ID": "1999-025ANC", "EPOCH": "2025-12-24T07:27:03.076992", "MEAN_MOTION": 14.03900271, "ECCENTRICITY": 0.01363988, "INCLINATION": 98.6975, "RA_OF_ASC_NODE": 301.2402, "ARG_OF_PERICENTER": 274.3159, "MEAN_ANOMALY": 241.7775, "EPHEMERIS_TYPE": 0, "CLASSIFICATION_TYPE": "U", "NORAD_CAT_ID": 30621, "ELEMENT_SET_NO": 999, "REV_AT_EPOCH": 95752, "BSTAR": 0.0022507606, "MEAN_MOTION_DOT": 3.816e-05, "MEAN_MOTION_DDOT": 0}, "tle": {"line1": "1 30621U 99025ANC 25358.31045228  .00003816  00000+0  22508-2 0  9991", "line2": "2 30621  98.6975 301.2402 0136398 274.3159 241.7775 14.03900271957529"}}, "geometry": {"type": "Point", "coordinates": [-87.07266754011165, 72.60680628664139]}}, {"type": "Feature", "properties": {"norad_id": 30622, "name": "FENGYUN 1C DEB", "group": "fengyun-1c-debris", "lat": 54.284871049930054, "lon": -150.15936191271047, "alt_km": 823.4260934451531, "timestamp": "2025-12-25T07:00:34.324420+00:00", "meta": {"OBJECT_NAME": "FENGYUN 1C DEB", "OBJECT_ID": "1999-025AND", "EPOCH": "2025-12-23T20:00:58.826016", "MEAN_MOTION": 14.31388151, "ECCENTRICITY": 0.0072428, "INCLINATION": 101.0013, "RA_OF_ASC_NODE": 12.3003, "ARG_OF_PERICENTER": 344.4391, "MEAN_ANOMALY": 189.7638, "EPHEMERIS_TYPE": 0, "CLASSIFICATION_TYPE": "U", "NORAD_CAT_ID": 30622, "ELEMENT_SET_NO": 999, "REV_AT_EPOCH": 68956, "BSTAR": 0.0030539544, "MEAN_MOTION_DOT": 8.28e-05, "MEAN_MOTION_DDOT": 0}, "tle": {"line1": "1 30622U 99025AND 25357.83401419  .00008280  00000+0  30540-2 0  9991", "line2": "2 30622 101.0013  12.3003 0072428 344.4391 189.7638 14.31388151689562"}}, "geometry": {"type": "Point", "coordinates": [-150.15936191271047, 54.284871049930054]}}, {"type": "Feature", "properties": {"norad_id": 30623, "name": "FENGYUN 1C DEB", "group": "fengyun-1c-debris", "lat": 36.19109254740764, "lon": 169.70182613702218, "alt_km": 908.9508200647133, "timestamp": "2025-12-25T07:00:34.324444+00:00", "meta": {"OBJECT_NAME": "FENGYUN 1C DEB", "OBJECT_ID": "1999-025ANE", "EPOCH": "2025-12-24T11:06:54.006912", "MEAN_MOTION": 13.29347812, "ECCENTRICITY": 0.04037359, "INCLINATION": 98.8228, "RA_OF_ASC_NODE": 175.5157, "ARG_OF_PERICENTER": 78.8741, "MEAN_ANOMALY": 315.8496, "EPHEMERIS_TYPE": 0, "CLASSIFICATION_TYPE": "U", "NORAD_CAT_ID": 30623, "ELEMENT_SET_NO": 999, "REV_AT_EPOCH": 91372, "BSTAR": 0.0005272903, "MEAN_MOTION_DOT": 3.5e-06, "MEAN_MOTION_DDOT": 0}, "tle": {"line1": "1 30623U 99025ANE 25358.46312508  .00000350  00000+0  52729-3 0  9996", "line2": "2 30623  98.8228 175.5157 0403735  78.8741 315.8496 13.29347812913729"}}, "geometry": {"type": "Point", "coordinates": [169.70182613702218, 36.19109254740764]}}, {"type": "Feature", "properties": {"norad_id": 30624, "name": "FENGYUN 1C DEB", "group": "fengyun-1c-debris", "lat": 15.323115145922488, "lon": 79.78400711598134, "alt_km": 697.9546587602117, "timestamp": "2025-12-25T07:00:34.324458+00:00", "meta": {"OBJECT_NAME": "FENGYUN 1C DEB", "OBJECT_ID": "1999-025ANF", "EPOCH": "2025-12-24T16:09:50.793984", "MEAN_MOTION": 14.62820757, "ECCENTRICITY": 0.00238005, "INCLINATION": 98.8854, "RA_OF_ASC_NODE": 81.5753, "ARG_OF_PERICENTER": 235.704, "MEAN_ANOMALY": 124.1906, "EPHEMERIS_TYPE": 0, "CLASSIFICATION_TYPE": "U", "NORAD_CAT_ID": 30624, "ELEMENT_SET_NO": 999, "REV_AT_EPOCH": 97670, "BSTAR": 0.0047100308, "MEAN_MOTION_DOT": 0.00024172, "MEAN_MOTION_DDOT": 0}, "tle": {"line1": "1 30624U 99025ANF 25358.67350456  .00024172  00000+0  47100-2 0  9998", "line2": "2 30624  98.8854  81.5753 0023800 235.7040 124.1906 14.62820757976706"}}, "geometry": {"type": "Point", "coordinates": [79.78400711598134, 15.323115145922488]}}, {"type": "Feature", "properties": {"norad_id": 30625, "name": "FENGYUN 1C DEB", "group": "fengyun-1c-debris", "lat": 71.55494858216133, "lon": 163.93972715517953, "alt_km": 777.4625360526952, "timestamp": "2025-12-25T07:00:34.324470+00:00", "meta": {"OBJECT_NAME": "FENGYUN 1C DEB", "OBJECT_ID": "1999-025ANG", "EPOCH": "2025-12-24T20:31:20.244288", "MEAN_MOTION": 14.4180688, "ECCENTRICITY": 0.00479496, "INCLINATION": 98.9288, "RA_OF_ASC_NODE": 315.3603, "ARG_OF_PERICENTER": 266.4577, "MEAN_ANOMALY": 93.1126, "EPHEMERIS_TYPE": 0, "CLASSIFICATION_TYPE": "U", "NORAD_CAT_ID": 30625, "ELEMENT_SET_NO": 999, "REV_AT_EPOCH": 96867, "BSTAR": 0.0040161755, "MEAN_MOTION_DOT": 0.00013281, "MEAN_MOTION_DDOT": 0}, "tle": {"line1": "1 30625U 99025ANG 25358.85509542  .00013281  00000+0  40162-2 0  9991", "line2": "2 30625  98.9288 315.3603 0047949 266.4577  93.1126 14.41806880968671"}}, "geometry": {"type": "Point", "coordinates": [163.93972715517953, 71.55494858216133]}}, {"type": "Feature", "properties": {"norad_id": 30628, "name": "FENGYUN 1C DEB", "group": "fengyun-1c-debris", "lat": -61.21842033758647, "lon": -65.75587325783293, "alt_km": 670.5248185684204, "timestamp": "2025-12-25T07:00:34.324482+00:00", "meta": {"OBJECT_NAME": "FENGYUN 1C DEB", "OBJECT_ID": "1999-025ANK", "EPOCH": "2025-12-23T17:42:22.043232", "MEAN_MOTION": 14.69354016, "ECCENTRICITY": 0.00218278, "INCLINATION": 99.3407, "RA_OF_ASC_NODE": 275.0336, "ARG_OF_PERICENTER": 210.4518, "MEAN_ANOMALY": 149.5417, "EPHEMERIS_TYPE": 0, "CLASSIFICATION_TYPE": "U", "NORAD_CAT_ID": 30628, "ELEMENT_SET_NO": 999, "REV_AT_EPOCH": 98632, "BSTAR": 0.0025201456, "MEAN_MOTION_DOT": 0.00014915, "MEAN_MOTION_DDOT": 0}, "tle": {"line1": "1 30628U 99025ANK 25357.73775513  .00014915  00000+0  25201-2 0  9995", "line2": "2 30628  99.3407 275.0336 0021827 210.4518 149.5417 14.69354016986328"}}, "geometry": {"type": "Point", "coordinates": [-65.75587325783293, -61.21842033758647]}}, {"type": "Feature", "properties": {"norad_id": 30629, "name": "FENGYUN 1C DEB", "group": "fengyun-1c-debris", "lat": 19.915121878179207, "lon": 93.2761941017857, "alt_km": 698.0728998798941, "timestamp": "2025-12-25T07:00:34.324493+00:00", "meta": {"OBJECT_NAME": "FENGYUN 1C DEB", "OBJECT_ID": "1999-025ANL", "EPOCH": "2025-12-24T18:26:54.216384", "MEAN_MOTION": 14.59883251, "ECCENTRICITY": 0.00074062, "INCLINATION": 99.2505, "RA_OF_ASC_NODE": 96.078, "ARG_OF_PERICENTER": 171.8113, "MEAN_ANOMALY": 339.4253, "EPHEMERIS_TYPE": 0, "CLASSIFICATION_TYPE": "U", "NORAD_CAT_ID": 30629, "ELEMENT_SET_NO": 999, "REV_AT_EPOCH": 98065, "BSTAR": 0.0032567905, "MEAN_MOTION_DOT": 0.00015573, "MEAN_MOTION_DDOT": 0}, "tle": {"line1": "1 30629U 99025ANL 25358.76868306  .00015573  00000+0  32568-2 0  9998", "line2": "2 30629  99.2505  96.0780 0007406 171.8113 339.4253 14.59883251980654"}}, "geometry": {"type": "Point", "coordinates": [93.2761941017857, 19.915121878179207]}}]}